[
  {
    "OBJECT_NAME": "STARLINK-4509",
    "OBJECT_ID": "22097S",
    "EPOCH": "2025-11-11T05:03:30.124512",
    "MEAN_MOTION": 15.08838614,
    "ECCENTRICITY": 0.0001322,
    "INCLINATION": 53.2166,
    "RA_OF_ASC_NODE": 285.9238,
    "ARG_OF_PERICENTER": 84.7604,
    "MEAN_ANOMALY": 275.3539,
    "EPHEMERIS_TYPE": 0,
    "CLASSIFICATION_TYPE": "U",
    "NORAD_CAT_ID": 53404,
    "ELEMENT_SET_NO": 999,
    "REV_AT_EPOCH": 18076,
    "BSTAR": 5.5943e-05,
    "MEAN_MOTION_DOT": 6.03e-06,
    "MEAN_MOTION_DDOT": 0.0,
    "TLE_LINE1": "1 53404U 22097S   25315.21076533  .00000603  00000+0  55943-4 0  9997",
    "TLE_LINE2": "2 53404  53.2166 285.9238 0001322  84.7604 275.3539 15.08838614180765",
    "COMMENT": "Grouped by shell and plane from TLE"
  },
  {
    "OBJECT_NAME": "STARLINK-4533",
    "OBJECT_ID": "22097U",
    "EPOCH": "2025-11-11T04:46:13.691712",
    "MEAN_MOTION": 15.08852025,
    "ECCENTRICITY": 0.0001422,
    "INCLINATION": 53.2168,
    "RA_OF_ASC_NODE": 286.0451,
    "ARG_OF_PERICENTER": 85.2866,
    "MEAN_ANOMALY": 274.8289,
    "EPHEMERIS_TYPE": 0,
    "CLASSIFICATION_TYPE": "U",
    "NORAD_CAT_ID": 53406,
    "ELEMENT_SET_NO": 999,
    "REV_AT_EPOCH": 18076,
    "BSTAR": 0.00015387999999999998,
    "MEAN_MOTION_DOT": 2.163e-05,
    "MEAN_MOTION_DDOT": 0.0,
    "TLE_LINE1": "1 53406U 22097U   25315.19876958  .00002163  00000+0  15388-3 0  9996",
    "TLE_LINE2": "2 53406  53.2168 286.0451 0001422  85.2866 274.8289 15.08852025180763",
    "COMMENT": "Grouped by shell and plane from TLE"
  },
  {
    "OBJECT_NAME": "STARLINK-4491",
    "OBJECT_ID": "22097W",
    "EPOCH": "2025-11-11T05:02:08.121408",
    "MEAN_MOTION": 15.08841985,
    "ECCENTRICITY": 0.0001559,
    "INCLINATION": 53.2183,
    "RA_OF_ASC_NODE": 286.0007,
    "ARG_OF_PERICENTER": 96.0973,
    "MEAN_ANOMALY": 264.0197,
    "EPHEMERIS_TYPE": 0,
    "CLASSIFICATION_TYPE": "U",
    "NORAD_CAT_ID": 53408,
    "ELEMENT_SET_NO": 999,
    "REV_AT_EPOCH": 18076,
    "BSTAR": 7.4456e-05,
    "MEAN_MOTION_DOT": 8.97e-06,
    "MEAN_MOTION_DDOT": 0.0,
    "TLE_LINE1": "1 53408U 22097W   25315.20981622  .00000897  00000+0  74456-4 0  9999",
    "TLE_LINE2": "2 53408  53.2183 286.0007 0001559  96.0973 264.0197 15.08841985180761",
    "COMMENT": "Grouped by shell and plane from TLE"
  },
  {
    "OBJECT_NAME": "STARLINK-4492",
    "OBJECT_ID": "22097Y",
    "EPOCH": "2025-11-11T06:32:12.982272",
    "MEAN_MOTION": 15.08842736,
    "ECCENTRICITY": 0.0001314,
    "INCLINATION": 53.2169,
    "RA_OF_ASC_NODE": 285.7143,
    "ARG_OF_PERICENTER": 92.8524,
    "MEAN_ANOMALY": 267.2618,
    "EPHEMERIS_TYPE": 0,
    "CLASSIFICATION_TYPE": "U",
    "NORAD_CAT_ID": 53410,
    "ELEMENT_SET_NO": 999,
    "REV_AT_EPOCH": 18077,
    "BSTAR": 9.9484e-05,
    "MEAN_MOTION_DOT": 1.296e-05,
    "MEAN_MOTION_DDOT": 0.0,
    "TLE_LINE1": "1 53410U 22097Y   25315.27237248  .00001296  00000+0  99484-4 0  9999",
    "TLE_LINE2": "2 53410  53.2169 285.7143 0001314  92.8524 267.2618 15.08842736180779",
    "COMMENT": "Grouped by shell and plane from TLE"
  },
  {
    "OBJECT_NAME": "STARLINK-4497",
    "OBJECT_ID": "22097Z",
    "EPOCH": "2025-11-11T06:42:49.065120",
    "MEAN_MOTION": 15.08839995,
    "ECCENTRICITY": 0.0001342,
    "INCLINATION": 53.2169,
    "RA_OF_ASC_NODE": 285.6822,
    "ARG_OF_PERICENTER": 86.919,
    "MEAN_ANOMALY": 273.1955,
    "EPHEMERIS_TYPE": 0,
    "CLASSIFICATION_TYPE": "U",
    "NORAD_CAT_ID": 53411,
    "ELEMENT_SET_NO": 999,
    "REV_AT_EPOCH": 18077,
    "BSTAR": 4.5456000000000007e-05,
    "MEAN_MOTION_DOT": 4.36e-06,
    "MEAN_MOTION_DDOT": 0.0,
    "TLE_LINE1": "1 53411U 22097Z   25315.27973455  .00000436  00000+0  45456-4 0  9992",
    "TLE_LINE2": "2 53411  53.2169 285.6822 0001342  86.9190 273.1955 15.08839995180770",
    "COMMENT": "Grouped by shell and plane from TLE"
  },
  {
    "OBJECT_NAME": "STARLINK-4496",
    "OBJECT_ID": "22097AA",
    "EPOCH": "2025-11-11T04:40:56.949312",
    "MEAN_MOTION": 15.08830654,
    "ECCENTRICITY": 0.0001436,
    "INCLINATION": 53.2177,
    "RA_OF_ASC_NODE": 286.0625,
    "ARG_OF_PERICENTER": 92.9304,
    "MEAN_ANOMALY": 267.1852,
    "EPHEMERIS_TYPE": 0,
    "CLASSIFICATION_TYPE": "U",
    "NORAD_CAT_ID": 53412,
    "ELEMENT_SET_NO": 999,
    "REV_AT_EPOCH": 18076,
    "BSTAR": 0.0,
    "MEAN_MOTION_DOT": -2.178e-05,
    "MEAN_MOTION_DDOT": 0.0,
    "TLE_LINE1": "1 53412U 22097AA  25315.19510358 -.00002178  00000+0 -11884-3 0  9997",
    "TLE_LINE2": "2 53412  53.2177 286.0625 0001436  92.9304 267.1852 15.08830654180765",
    "COMMENT": "Grouped by shell and plane from TLE"
  },
  {
    "OBJECT_NAME": "STARLINK-4500",
    "OBJECT_ID": "22097AB",
    "EPOCH": "2025-11-11T04:51:31.629024",
    "MEAN_MOTION": 15.0885116,
    "ECCENTRICITY": 0.0001344,
    "INCLINATION": 53.2166,
    "RA_OF_ASC_NODE": 286.0287,
    "ARG_OF_PERICENTER": 95.1559,
    "MEAN_ANOMALY": 264.9587,
    "EPHEMERIS_TYPE": 0,
    "CLASSIFICATION_TYPE": "U",
    "NORAD_CAT_ID": 53413,
    "ELEMENT_SET_NO": 999,
    "REV_AT_EPOCH": 18076,
    "BSTAR": 0.00013544000000000002,
    "MEAN_MOTION_DOT": 1.869e-05,
    "MEAN_MOTION_DDOT": 0.0,
    "TLE_LINE1": "1 53413U 22097AB  25315.20244941  .00001869  00000+0  13544-3 0  9991",
    "TLE_LINE2": "2 53413  53.2166 286.0287 0001344  95.1559 264.9587 15.08851160180768",
    "COMMENT": "Grouped by shell and plane from TLE"
  },
  {
    "OBJECT_NAME": "STARLINK-4304",
    "OBJECT_ID": "22097AC",
    "EPOCH": "2025-11-11T04:35:38.381280",
    "MEAN_MOTION": 15.08842094,
    "ECCENTRICITY": 0.0001426,
    "INCLINATION": 53.2174,
    "RA_OF_ASC_NODE": 286.0793,
    "ARG_OF_PERICENTER": 81.7137,
    "MEAN_ANOMALY": 278.4017,
    "EPHEMERIS_TYPE": 0,
    "CLASSIFICATION_TYPE": "U",
    "NORAD_CAT_ID": 53414,
    "ELEMENT_SET_NO": 999,
    "REV_AT_EPOCH": 18075,
    "BSTAR": 5.910100000000001e-05,
    "MEAN_MOTION_DOT": 6.53e-06,
    "MEAN_MOTION_DDOT": 0.0,
    "TLE_LINE1": "1 53414U 22097AC  25315.19141645  .00000653  00000+0  59101-4 0  9997",
    "TLE_LINE2": "2 53414  53.2174 286.0793 0001426  81.7137 278.4017 15.08842094180757",
    "COMMENT": "Grouped by shell and plane from TLE"
  },
  {
    "OBJECT_NAME": "STARLINK-4479",
    "OBJECT_ID": "22097AD",
    "EPOCH": "2025-11-11T04:30:20.308320",
    "MEAN_MOTION": 15.08845508,
    "ECCENTRICITY": 0.0001382,
    "INCLINATION": 53.217,
    "RA_OF_ASC_NODE": 286.0953,
    "ARG_OF_PERICENTER": 86.1001,
    "MEAN_ANOMALY": 274.0149,
    "EPHEMERIS_TYPE": 0,
    "CLASSIFICATION_TYPE": "U",
    "NORAD_CAT_ID": 53415,
    "ELEMENT_SET_NO": 999,
    "REV_AT_EPOCH": 18073,
    "BSTAR": 9.9471e-05,
    "MEAN_MOTION_DOT": 1.296e-05,
    "MEAN_MOTION_DDOT": 0.0,
    "TLE_LINE1": "1 53415U 22097AD  25315.18773505  .00001296  00000+0  99471-4 0  9991",
    "TLE_LINE2": "2 53415  53.2170 286.0953 0001382  86.1001 274.0149 15.08845508180731",
    "COMMENT": "Grouped by shell and plane from TLE"
  },
  {
    "OBJECT_NAME": "STARLINK-4480",
    "OBJECT_ID": "22097AE",
    "EPOCH": "2025-11-11T05:44:31.484256",
    "MEAN_MOTION": 15.08838865,
    "ECCENTRICITY": 0.0001476,
    "INCLINATION": 53.219,
    "RA_OF_ASC_NODE": 285.8172,
    "ARG_OF_PERICENTER": 89.182,
    "MEAN_ANOMALY": 270.9341,
    "EPHEMERIS_TYPE": 0,
    "CLASSIFICATION_TYPE": "U",
    "NORAD_CAT_ID": 53416,
    "ELEMENT_SET_NO": 999,
    "REV_AT_EPOCH": 18074,
    "BSTAR": 0.00013949,
    "MEAN_MOTION_DOT": 1.933e-05,
    "MEAN_MOTION_DDOT": 0.0,
    "TLE_LINE1": "1 53416U 22097AE  25315.23925329  .00001933  00000+0  13949-3 0  9994",
    "TLE_LINE2": "2 53416  53.2190 285.8172 0001476  89.1820 270.9341 15.08838865180748",
    "COMMENT": "Grouped by shell and plane from TLE"
  },
  {
    "OBJECT_NAME": "STARLINK-4484",
    "OBJECT_ID": "22097AF",
    "EPOCH": "2025-11-11T06:00:25.749792",
    "MEAN_MOTION": 15.0884849,
    "ECCENTRICITY": 0.0001437,
    "INCLINATION": 53.2161,
    "RA_OF_ASC_NODE": 285.8161,
    "ARG_OF_PERICENTER": 96.1312,
    "MEAN_ANOMALY": 263.9844,
    "EPHEMERIS_TYPE": 0,
    "CLASSIFICATION_TYPE": "U",
    "NORAD_CAT_ID": 53417,
    "ELEMENT_SET_NO": 999,
    "REV_AT_EPOCH": 18074,
    "BSTAR": 0.0012989000000000002,
    "MEAN_MOTION_DOT": 0.0002045,
    "MEAN_MOTION_DDOT": 0.0,
    "TLE_LINE1": "1 53417U 22097AF  25315.25029803  .00020450  00000+0  12989-2 0  9996",
    "TLE_LINE2": "2 53417  53.2161 285.8161 0001437  96.1312 263.9844 15.08848490180741",
    "COMMENT": "Grouped by shell and plane from TLE"
  },
  {
    "OBJECT_NAME": "STARLINK-4476",
    "OBJECT_ID": "22097AH",
    "EPOCH": "2025-11-11T05:55:07.626720",
    "MEAN_MOTION": 15.08844267,
    "ECCENTRICITY": 0.0001296,
    "INCLINATION": 53.217,
    "RA_OF_ASC_NODE": 285.8319,
    "ARG_OF_PERICENTER": 82.2874,
    "MEAN_ANOMALY": 277.8266,
    "EPHEMERIS_TYPE": 0,
    "CLASSIFICATION_TYPE": "U",
    "NORAD_CAT_ID": 53419,
    "ELEMENT_SET_NO": 999,
    "REV_AT_EPOCH": 18074,
    "BSTAR": 8.0115e-05,
    "MEAN_MOTION_DOT": 9.88e-06,
    "MEAN_MOTION_DDOT": 0.0,
    "TLE_LINE1": "1 53419U 22097AH  25315.24661605  .00000988  00000+0  80115-4 0  9991",
    "TLE_LINE2": "2 53419  53.2170 285.8319 0001296  82.2874 277.8266 15.08844267180740",
    "COMMENT": "Grouped by shell and plane from TLE"
  },
  {
    "OBJECT_NAME": "STARLINK-4552",
    "OBJECT_ID": "22097AJ",
    "EPOCH": "2025-11-11T07:14:36.859200",
    "MEAN_MOTION": 15.08845459,
    "ECCENTRICITY": 0.0001709,
    "INCLINATION": 53.2181,
    "RA_OF_ASC_NODE": 285.5858,
    "ARG_OF_PERICENTER": 94.3589,
    "MEAN_ANOMALY": 265.7598,
    "EPHEMERIS_TYPE": 0,
    "CLASSIFICATION_TYPE": "U",
    "NORAD_CAT_ID": 53420,
    "ELEMENT_SET_NO": 999,
    "REV_AT_EPOCH": 18075,
    "BSTAR": 3.3113e-05,
    "MEAN_MOTION_DOT": 2.39e-06,
    "MEAN_MOTION_DDOT": 0.0,
    "TLE_LINE1": "1 53420U 22097AJ  25315.30181550  .00000239  00000+0  33113-4 0  9991",
    "TLE_LINE2": "2 53420  53.2181 285.5858 0001709  94.3589 265.7598 15.08845459180754",
    "COMMENT": "Grouped by shell and plane from TLE"
  }
]